#dP2021  7  2  0  0  0.00000000      96 __u+U ITR00 EXT  IAC
## 2164 432000.00000000   900.00000000 59397 0.0000000000000
+  116   C06C07C08C09C10C11C12C13C14C16C19C20C21C22C23C24C25
+        C26C27C28C29C30C32C33C34C35C36C37C38C39C40C41C42C43
+        C44C45C46E01E02E03E04E05E07E08E09E11E12E13E14E15E18
+        E19E21E24E25E26E27E30E31E33E36G01G02G03G04G05G06G07
+        G08G09G10G12G13G14G15G16G17G18G19G20G21G22G23G24G25
+        G26G27G28G29G30G31G32J01J02J03R01R02R03R04R05R07R08
+        R09R11R12R13R14R15R16R17R18R19R20R21R22R24  0  0  0
++        10 10  9  9  8  8  8 10  9  8  8  9  8  8  9  9  9
++         8  9  9  8  9  7  8  9  8  9  7 10 10  9  9  8  9
++        10  6  9  8  8  8  8  7  8  8  7  8  7  8  9  8  7
++         8  8  7  8  7  7  7  8  8  8  6  7  7  7  8  8  8
++         6  7  6  8  7  8  7  9  9  6  8  8  7  8  8  6  8
++         8  8  6  8  8  7  7 10 10  9  8  8  9  8  8  8  8
++        10  8  9  8  8  8  8  7  8  9  9  7  9  9  0  0  0
%c M  cc GPS ccc cccc cccc cccc cccc ccccc ccccc ccccc ccccc
%c cc cc ccc ccc cccc cccc cccc cccc ccccc ccccc ccccc ccccc
%f  0.0000000  0.000000000  0.00000000000  0.000000000000000
%f  0.0000000  0.000000000  0.00000000000  0.000000000000000
%i    0    0    0    0      0      0      0      0         0
%i    0    0    0    0      0      0      0      0         0
/* IAC                                ULTRA-RAPID PREDICTION
/* S/V CLOCKS ARE ALIGNED TO GNSS TIME                      
/* G:C1WC2W R:C1PC2P E:C1XC5X C:C2IC6I J:C1CC2S             
/* PCV:IGS14_2148 OL/AL:FES2004  NONE     YN ORB:CoN CLK:CoN
*  2021 07 02  0 45  0.00000000
PC06  -7020.096528  32113.779049 -25648.158004    572.122389
PC07 -17397.548391  23875.941496  30195.016931    166.958879
PC08 -21444.988215  35877.466068  -6833.196066   -899.444746
PC09   3500.611810  39345.215626 -13802.846080    405.747415
PC10  -2262.914303  26580.404881  32863.888905    -23.349838
PC11  10749.713082  25300.920286  -4879.990106    432.960480
PC12   -911.986335  24995.313674  12425.926417    825.242813
PC13 -12420.614568  36587.056151 -17088.163500    321.033616
PC14  15239.651873  15608.217244 -17412.457383    845.997009
PC16  -4707.910465  33639.097173 -24713.802541   -935.556716
PC19 -23167.692192 -11945.782769   9961.365401    893.449795
PC20  -6629.271560 -16563.185523  21466.474462   -857.758264
PC21 -14732.442813  11481.985832 -20705.556561   -935.044662
PC22 -26787.700212   -263.286775  -7751.698852   -948.664946
PC23  22091.061852  -8126.598937  15004.600386   -955.200677
PC24  -4052.371030  22020.093407  16667.388519   -919.023377
PC25  13633.499753   8965.772108  22635.714601   -892.317963
PC26 -17251.737751  21864.609332   2005.059322    884.722667
PC27   7783.365367 -19123.771420 -18803.638950    557.522753
PC28  16365.032104    154.449203 -22606.314530    -55.602288
PC29 -16052.857077 -18677.123631  13111.921761    413.794400
PC30  -5969.368819 -26898.006775  -4503.979496    472.639495
PC32  14699.827541 -11604.306964  20709.711632   -924.093788
PC33  23228.227655  11842.883379  -9970.172380   -939.606025
PC34   6435.144104  26882.784325   3731.552992   -637.616496
PC35 -16521.759864    -11.730579  22483.028058   -206.853785
PC36 -13135.308750  -9593.671959 -22644.797031   -730.086696
PC37  18247.061476 -21074.834168  -1097.552302   -868.694825
PC38 -19648.463685  36599.960077  -7625.531399    158.952647
PC39  -1614.764716  34446.669883 -24138.988770     32.137951
PC40  -9252.880700  21074.020648  35341.994091    176.475729
PC41  26889.314527    342.304825   7507.844566   -953.833632
PC42   5828.371110  16578.895965 -21637.170196   -916.226011
PC43  15873.920562  19134.606709 -12665.109252   -802.186623
PC44  -7360.200173  19218.320781  18820.293515    268.146492
PC45 -22038.352927   8375.260231 -14932.053143    482.294550
PC46   3081.653887 -21568.599547 -17408.387575    198.336355
PE01 -28379.935368   6297.075835  -5569.959839  -1141.221773
PE02  28380.525277  -6383.227705   5451.294999    230.012149
PE03  23386.436097   3000.713213  17909.408758   -448.097815
PE04 -10041.820043  13866.984185 -24135.902971   -804.417888
PE05  23192.059709  18367.682675   1059.861513   -268.498592
PE07  -9470.259710 -22865.388415  16238.948390   -556.636718
PE08   9590.574409 -14043.672820  24233.158552   5977.009984
PE09   9842.349015  22772.945910 -16151.105594   5614.601121
PE11    163.748488  28647.797522  -7431.845903   5776.716614
PE12 -11960.986446  24273.648969  11968.472453   5132.013622
PE13     76.640997 -28762.133377   7001.255043    418.478275
PE14  25009.434277   7991.148479 -18759.504341  -1485.724951
PE15  11833.463995 -24351.115682 -11971.079562    805.745710
PE18 -18444.598088  -9812.359141  11393.077020  -1627.864246
PE19 -24077.093810  -5148.528141 -16420.343734    316.377248
PE21 -20159.267524  -7284.290165 -20410.104750   -673.867252
PE24  -1124.277707  17548.533078  23804.471094   -985.256082
PE25  19995.821601   7430.354920  20530.613041   -538.682672
PE26 -12177.189844 -15450.735852  22111.994555   1627.900151
PE27     47.566768 -17276.039009 -24028.886546    -66.520429
PE30  20941.484690 -16660.061672 -12648.737604   2817.962892
PE31 -20074.071096  17051.101762  13514.611699   -482.805740
PE33 -16597.476274   5607.923187  23854.716025   -468.304908
PE36  11706.315224  16222.631175 -21818.166216   -228.676430
PG01 -13856.809301  20740.395668   8335.477384    641.089234
PG02  15071.032505    944.220985 -21206.609014   -616.575740
PG03 -19580.335040  12361.487560 -12994.858267   -208.146038
PG04  -8827.444369  13031.903033 -21378.268979   -201.403186
PG05  25998.533681  -5860.870522    603.749296    -46.638625
PG06   9785.253476  13257.478594 -20763.913447     34.243168
PG07  -5298.569091  25215.381855   5603.753364    192.336852
PG08 -16227.779079   3176.265090  20836.867163    -27.223756
PG09   2040.144664  20583.718401 -16709.220215   -353.736322
PG10 -10977.321012 -12588.722466  20829.882108   -153.633157
PG12  20962.579282 -10601.322724 -12514.087169    -62.791963
PG13  18487.479642   6176.256054  17972.493508    152.198956
PG14  10518.728608  13231.131368  20491.119486     57.195504
PG15  16129.631400  -5391.143336  20104.977564   -138.466221
PG16 -26426.739179  -1067.174251  -4618.151179   -350.327346
PG17  12436.685537  22957.004683   5280.607705    467.275623
PG18   3906.931885 -24958.952784   8061.931290    343.682300
PG19  17054.797707  19977.276641  -4681.777256     20.797449
PG20  25330.005257  -3070.627236  -6750.297284    520.610050
PG21 -15917.672698  14297.192416  16105.610769    128.656085
PG22 -24158.455702   9856.405868  -4175.943343   -574.181419
PG23   2081.417755 -15532.322763  21414.878691     90.116715
PG24  14889.108346 -17509.480610  12712.452212    157.386910
PG25   9833.991082 -15458.340617 -19396.116573    166.040915
PG26 -21860.674235  -5815.895208 -14189.357889    105.444736
PG27 -20163.946913  -7931.013729  15426.421345   -156.259234
PG28  15984.238437  11355.399011  18376.543673    545.080989
PG29    319.558578 -19827.326974 -17691.132591   -373.408716
PG30   4164.645530  20892.930798  15779.332592   -445.821873
PG31 -11683.298216 -11042.036804 -21152.030108   -126.269576
PG32 -15725.106381 -21392.198167   2479.183661     16.156625
PJ01 -27933.722911  14859.150137 -23252.249836   -406.838809
PJ02 -30957.237778  27540.289741  12510.006034     -0.530546
PJ03 -24890.162650  26315.235649  26588.834979     -9.750638
PR01 -13166.916206 -13933.689844  16822.662566     81.712369
PR02 -23786.786322  -8984.180626  -2349.657113    484.479011
PR03 -18279.808205   1436.699730 -17711.683584     38.715123
PR04  -2446.300328  10673.670022 -23007.498845     93.862190
PR05  14604.568389  14089.880843 -15427.423565     74.571631
PR07  17731.538758  -1927.242817  18256.430894    -42.172339
PR08   2402.545021 -10853.802142  23016.769174    -59.763333
PR09  17324.762261  -1857.823646  18681.132120      0.777527
PR11  13105.649761 -17867.891566 -12635.816608    -17.393674
PR12  -3000.467130 -11293.460421 -22642.622813    241.838133
PR13 -16714.791834   1419.854582 -19225.231143    -57.090840
PR14 -21067.844022  13826.935951  -3870.663027     65.983754
PR15 -12871.158734  17697.003397  13126.788009    102.932811
PR16   4263.701598  10753.861171  22725.994702    -17.239283
PR17  -8952.078790   9287.937974  22014.309648    437.475712
PR18  -2434.385724  22766.084422  11198.923605     81.974109
PR19   4364.472765  24676.020339  -4790.599346   -149.918217
PR20  10187.938650  10856.408143 -20700.649913    -51.798539
PR21   8577.343941 -10462.430080 -21625.874080   -220.741764
PR22   2046.957660 -23321.229437 -10264.024359   -120.533306
PR24 -10866.767453  -9928.613226  20837.126981     48.771318
EOF
